{
  "links" : {
    "next" : "https://api.nasa.gov/neo/rest/v1/feed?start_date=2016-05-16&end_date=2016-05-16&detailed=true&api_key=t0TVs3DtDT2H8Oy2Zy8m2eVrNsAVKAexjcZXUckd",
    "prev" : "https://api.nasa.gov/neo/rest/v1/feed?start_date=2016-05-14&end_date=2016-05-14&detailed=true&api_key=t0TVs3DtDT2H8Oy2Zy8m2eVrNsAVKAexjcZXUckd",
    "self" : "https://api.nasa.gov/neo/rest/v1/feed?start_date=2016-05-15&end_date=2016-05-15&detailed=true&api_key=t0TVs3DtDT2H8Oy2Zy8m2eVrNsAVKAexjcZXUckd"
  },
  "element_count" : 5,
  "near_earth_objects" : {
    "2016-05-15" : [ {
      "links" : {
        "self" : "https://api.nasa.gov/neo/rest/v1/neo/3757291?api_key=t0TVs3DtDT2H8Oy2Zy8m2eVrNsAVKAexjcZXUckd"
      },
      "neo_reference_id" : "3757291",
      "name" : "(2016 PH38)",
      "nasa_jpl_url" : "http://ssd.jpl.nasa.gov/sbdb.cgi?sstr=3757291",
      "absolute_magnitude_h" : 20.6,
      "estimated_diameter" : {
        "kilometers" : {
          "estimated_diameter_min" : 0.2016299194,
          "estimated_diameter_max" : 0.4508582062
        },
        "meters" : {
          "estimated_diameter_min" : 201.6299194428,
          "estimated_diameter_max" : 450.8582061718
        },
        "miles" : {
          "estimated_diameter_min" : 0.1252869847,
          "estimated_diameter_max" : 0.2801502144
        },
        "feet" : {
          "estimated_diameter_min" : 661.5155049046,
          "estimated_diameter_max" : 1479.1936371367
        }
      },
      "is_potentially_hazardous_asteroid" : false,
      "close_approach_data" : [ {
        "close_approach_date" : "2016-05-15",
        "epoch_date_close_approach" : 1463295600000,
        "relative_velocity" : {
          "kilometers_per_second" : "22.8018491744",
          "kilometers_per_hour" : "82086.657027921",
          "miles_per_hour" : "51005.4564182657"
        },
        "miss_distance" : {
          "astronomical" : "0.4777610416",
          "lunar" : "185.8490447998",
          "kilometers" : "71472032",
          "miles" : "44410664"
        },
        "orbiting_body" : "Earth"
      } ],
      "orbital_data" : {
        "orbit_id" : "5",
        "orbit_determination_date" : "2017-04-06 08:24:36",
        "orbit_uncertainty" : "6",
        "minimum_orbit_intersection" : ".259874",
        "jupiter_tisserand_invariant" : "3.633",
        "epoch_osculation" : "2458000.5",
        "eccentricity" : ".7167155362566165",
        "semi_major_axis" : "1.831683383179719",
        "inclination" : "16.7992176843339",
        "ascending_node_longitude" : "180.6981542011159",
        "orbital_period" : "905.4699361134741",
        "perihelion_distance" : ".5188874449517331",
        "perihelion_argument" : "18.58933819778133",
        "aphelion_distance" : "3.144479321407705",
        "perihelion_time" : "2458415.748433359852",
        "mean_anomaly" : "194.9040315449936",
        "mean_motion" : ".3975836034327312",
        "equinox" : "J2000"
      }
    }, {
      "links" : {
        "self" : "https://api.nasa.gov/neo/rest/v1/neo/3760959?api_key=t0TVs3DtDT2H8Oy2Zy8m2eVrNsAVKAexjcZXUckd"
      },
      "neo_reference_id" : "3760959",
      "name" : "(2016 TM56)",
      "nasa_jpl_url" : "http://ssd.jpl.nasa.gov/sbdb.cgi?sstr=3760959",
      "absolute_magnitude_h" : 26.8,
      "estimated_diameter" : {
        "kilometers" : {
          "estimated_diameter_min" : 0.0116025908,
          "estimated_diameter_max" : 0.0259441818
        },
        "meters" : {
          "estimated_diameter_min" : 11.6025908209,
          "estimated_diameter_max" : 25.9441817907
        },
        "miles" : {
          "estimated_diameter_min" : 0.0072095135,
          "estimated_diameter_max" : 0.0161209622
        },
        "feet" : {
          "estimated_diameter_min" : 38.066244069,
          "estimated_diameter_max" : 85.1187093863
        }
      },
      "is_potentially_hazardous_asteroid" : false,
      "close_approach_data" : [ {
        "close_approach_date" : "2016-05-15",
        "epoch_date_close_approach" : 1463295600000,
        "relative_velocity" : {
          "kilometers_per_second" : "2.7084479842",
          "kilometers_per_hour" : "9750.412743133",
          "miles_per_hour" : "6058.527295865"
        },
        "miss_distance" : {
          "astronomical" : "0.1603572524",
          "lunar" : "62.3789710999",
          "kilometers" : "23989104",
          "miles" : "14906138"
        },
        "orbiting_body" : "Earth"
      } ],
      "orbital_data" : {
        "orbit_id" : "22",
        "orbit_determination_date" : "2017-09-15 06:22:49",
        "orbit_uncertainty" : "5",
        "minimum_orbit_intersection" : ".00992343",
        "jupiter_tisserand_invariant" : "5.568",
        "epoch_osculation" : "2458000.5",
        "eccentricity" : ".1309031115882771",
        "semi_major_axis" : "1.119263900835058",
        "inclination" : "2.348243581315779",
        "ascending_node_longitude" : "213.8283416857231",
        "orbital_period" : "432.5110148021957",
        "perihelion_distance" : ".9727487735273157",
        "perihelion_argument" : "126.2540598434838",
        "aphelion_distance" : "1.265779028142799",
        "perihelion_time" : "2458070.098041444615",
        "mean_anomaly" : "302.0701576085405",
        "mean_motion" : ".832348744146186",
        "equinox" : "J2000"
      }
    } ]
  }
}